[{"OBJECT_NAME":"IONOSFERA-M 3","OBJECT_ID":"2025-155A","EPOCH":"2026-03-07T04:21:18.856800","MEAN_MOTION":14.2146571,"ECCENTRICITY":0.0002028,"INCLINATION":98.5921,"RA_OF_ASC_NODE":30.7166,"ARG_OF_PERICENTER":121.9498,"MEAN_ANOMALY":238.1877,"EPHEMERIS_TYPE":0,"CLASSIFICATION_TYPE":"U","NORAD_CAT_ID":64876,"ELEMENT_SET_NO":999,"REV_AT_EPOCH":3191,"BSTAR":6.6425e-5,"MEAN_MOTION_DOT":1.02e-6,"MEAN_MOTION_DDOT":0},{"OBJECT_NAME":"IONOSFERA-M 4","OBJECT_ID":"2025-155B","EPOCH":"2026-03-07T03:30:19.686816","MEAN_MOTION":14.21467511,"ECCENTRICITY":0.0001628,"INCLINATION":98.5916,"RA_OF_ASC_NODE":30.6006,"ARG_OF_PERICENTER":105.7436,"MEAN_ANOMALY":254.3921,"EPHEMERIS_TYPE":0,"CLASSIFICATION_TYPE":"U","NORAD_CAT_ID":64877,"ELEMENT_SET_NO":999,"REV_AT_EPOCH":3190,"BSTAR":7.7912e-5,"MEAN_MOTION_DOT":1.28e-6,"MEAN_MOTION_DDOT":0},{"OBJECT_NAME":"MICROCARB","OBJECT_ID":"2025-156A","EPOCH":"2026-03-07T03:16:44.315328","MEAN_MOTION":14.72197056,"ECCENTRICITY":0.0015367,"INCLINATION":97.989,"RA_OF_ASC_NODE":145.0831,"ARG_OF_PERICENTER":236.1231,"MEAN_ANOMALY":123.8515,"EPHEMERIS_TYPE":0,"CLASSIFICATION_TYPE":"U","NORAD_CAT_ID":64899,"ELEMENT_SET_NO":999,"REV_AT_EPOCH":3295,"BSTAR":0.00012822,"MEAN_MOTION_DOT":7.6e-6,"MEAN_MOTION_DDOT":0},{"OBJECT_NAME":"CO3D 3","OBJECT_ID":"2025-156B","EPOCH":"2026-03-07T03:53:44.161152","MEAN_MOTION":15.20210422,"ECCENTRICITY":0.0001526,"INCLINATION":97.4328,"RA_OF_ASC_NODE":146.3198,"ARG_OF_PERICENTER":148.1593,"MEAN_ANOMALY":211.9735,"EPHEMERIS_TYPE":0,"CLASSIFICATION_TYPE":"U","NORAD_CAT_ID":64900,"ELEMENT_SET_NO":999,"REV_AT_EPOCH":3403,"BSTAR":0.00027221,"MEAN_MOTION_DOT":5.831e-5,"MEAN_MOTION_DDOT":0},{"OBJECT_NAME":"CO3D 4","OBJECT_ID":"2025-156C","EPOCH":"2026-03-02T06:59:52.721952","MEAN_MOTION":15.20203154,"ECCENTRICITY":2.545e-5,"INCLINATION":97.4334,"RA_OF_ASC_NODE":141.5187,"ARG_OF_PERICENTER":280.3117,"MEAN_ANOMALY":79.8089,"EPHEMERIS_TYPE":0,"CLASSIFICATION_TYPE":"U","NORAD_CAT_ID":64901,"ELEMENT_SET_NO":999,"REV_AT_EPOCH":3329,"BSTAR":6.0250155e-5,"MEAN_MOTION_DOT":1.237e-5,"MEAN_MOTION_DDOT":0},{"OBJECT_NAME":"CO3D 2","OBJECT_ID":"2025-156D","EPOCH":"2026-03-07T04:40:43.618656","MEAN_MOTION":15.20203669,"ECCENTRICITY":0.0001373,"INCLINATION":97.4326,"RA_OF_ASC_NODE":146.2504,"ARG_OF_PERICENTER":123.1305,"MEAN_ANOMALY":237.0062,"EPHEMERIS_TYPE":0,"CLASSIFICATION_TYPE":"U","NORAD_CAT_ID":64902,"ELEMENT_SET_NO":999,"REV_AT_EPOCH":3403,"BSTAR":0.00033434,"MEAN_MOTION_DOT":7.177e-5,"MEAN_MOTION_DDOT":0},{"OBJECT_NAME":"CO3D 1","OBJECT_ID":"2025-156E","EPOCH":"2026-03-07T04:40:56.540640","MEAN_MOTION":15.20192769,"ECCENTRICITY":0.0001244,"INCLINATION":97.4329,"RA_OF_ASC_NODE":146.2509,"ARG_OF_PERICENTER":131.8653,"MEAN_ANOMALY":228.2688,"EPHEMERIS_TYPE":0,"CLASSIFICATION_TYPE":"U","NORAD_CAT_ID":64903,"ELEMENT_SET_NO":999,"REV_AT_EPOCH":3403,"BSTAR":0.00014274,"MEAN_MOTION_DOT":3.023e-5,"MEAN_MOTION_DDOT":0},{"OBJECT_NAME":"SENTINEL-6B","OBJECT_ID":"2025-264A","EPOCH":"2026-03-07T02:50:54.098880","MEAN_MOTION":12.80929384,"ECCENTRICITY":0.0007969,"INCLINATION":66.0448,"RA_OF_ASC_NODE":347.1776,"ARG_OF_PERICENTER":270.7034,"MEAN_ANOMALY":89.3068,"EPHEMERIS_TYPE":0,"CLASSIFICATION_TYPE":"U","NORAD_CAT_ID":66514,"ELEMENT_SET_NO":999,"REV_AT_EPOCH":1409,"BSTAR":7.9716e-5,"MEAN_MOTION_DOT":-4.3e-7,"MEAN_MOTION_DDOT":0},{"OBJECT_NAME":"CSG-3","OBJECT_ID":"2026-001A","EPOCH":"2026-03-07T04:34:27.587712","MEAN_MOTION":14.82145557,"ECCENTRICITY":0.0001448,"INCLINATION":97.8864,"RA_OF_ASC_NODE":251.2643,"ARG_OF_PERICENTER":87.4926,"MEAN_ANOMALY":272.6453,"EPHEMERIS_TYPE":0,"CLASSIFICATION_TYPE":"U","NORAD_CAT_ID":67304,"ELEMENT_SET_NO":999,"REV_AT_EPOCH":935,"BSTAR":7.3899e-5,"MEAN_MOTION_DOT":5.36e-6,"MEAN_MOTION_DDOT":0}]
