IONOSFERA-M 3           
1 64876U 25155A   26066.18146825  .00000102  00000+0  66425-4 0  9993
2 64876  98.5921  30.7166 0002028 121.9498 238.1877 14.21465710 31917
IONOSFERA-M 4           
1 64877U 25155B   26066.14606119  .00000128  00000+0  77912-4 0  9998
2 64877  98.5916  30.6006 0001628 105.7436 254.3921 14.21467511 31901
MICROCARB               
1 64899U 25156A   26066.13662402  .00000760  00000+0  12822-3 0  9999
2 64899  97.9890 145.0831 0015367 236.1231 123.8515 14.72197056 32958
CO3D 3                  
1 64900U 25156B   26066.16231668  .00005831  00000+0  27221-3 0  9994
2 64900  97.4328 146.3198 0001526 148.1593 211.9735 15.20210422 34038
CO3D 4                  
1 64901U 25156C   26061.29158243  .00001237  00000+0  60250-4 0  9997
2 64901  97.4334 141.5187 0000254 280.3117  79.8089 15.20203154 33293
CO3D 2                  
1 64902U 25156D   26066.19494929  .00007177  00000+0  33434-3 0  9998
2 64902  97.4326 146.2504 0001373 123.1305 237.0062 15.20203669 34039
CO3D 1                  
1 64903U 25156E   26066.19509885  .00003023  00000+0  14274-3 0  9994
2 64903  97.4329 146.2509 0001244 131.8653 228.2688 15.20192769 34031
SENTINEL-6B             
1 66514U 25264A   26066.11868170 -.00000043  00000+0  79716-4 0  9994
2 66514  66.0448 347.1776 0007969 270.7034  89.3068 12.80929384 14095
CSG-3                   
1 67304U 26001A   26066.19059708  .00000536  00000+0  73899-4 0  9991
2 67304  97.8864 251.2643 0001448  87.4926 272.6453 14.82145557  9358
